2025-313U               
1 67266U 25313U   26011.89660324  .00012905  00000+0  59726-3 0  9997
2 67266  97.4138  89.1225 0015225 187.0382 173.0642 15.20155018  2184
2025-313V               
1 67267U 25313V   26011.96211964  .00014064  00000+0  64969-3 0  9991
2 67267  97.4121  89.1757 0014426 192.5504 167.5374 15.20209247  2191
ZORKY-2M 7              
1 67268U 25313W   26011.96257643  .00010706  00000+0  49674-3 0  9991
2 67268  97.4121  89.1737 0015370 187.5964 172.5041 15.20114758  2192
2025-313X               
1 67269U 25313X   26011.96190611  .00016623  00000+0  76535-3 0  9993
2 67269  97.4147  89.1891 0015243 186.1369 173.9682 15.20276143  2198
2025-313Y               
1 67270U 25313Y   26011.89688024  .00013140  00000+0  60855-3 0  9996
2 67270  97.4121  89.1192 0015335 188.0741 172.0250 15.20124842  2181
2025-313Z               
1 67271U 25313Z   26011.96313679  .00005964  00000+0  27930-3 0  9998
2 67271  97.4117  89.1740 0015354 183.4642 176.6489 15.19991743  2191
2025-313AA              
1 67272U 25313AA  26011.89568559  .00013825  00000+0  63684-3 0  9991
2 67272  97.4120  89.1098 0015071 188.3929 171.7057 15.20302522  2189
2025-313AB              
1 67273U 25313AB  26011.89714869  .00004197  00000+0  19766-3 0  9993
2 67273  97.4135  89.1119 0014231 192.2957 167.7933 15.19982297  2181
2025-313AC              
1 67274U 25313AC  26011.89636006  .00008590  00000+0  39917-3 0  9991
2 67274  97.4110  89.1172 0015009 187.3537 172.7480 15.20131549  2188
2025-313AD              
1 67275U 25313AD  26011.96168599  .00009609  00000+0  44544-3 0  9991
2 67275  97.4084  89.1781 0014212 190.0694 170.0259 15.20190316  2198
2025-313AE              
1 67276U 25313AE  26011.89582726  .00009487  00000+0  43984-3 0  9997
2 67276  97.4089  89.1137 0014164 190.2637 169.8311 15.20191612  2188
2025-313AF              
1 67277U 25313AF  26011.89597710  .00008244  00000+0  38302-3 0  9995
2 67277  97.4090  89.1142 0014164 190.0858 170.0095 15.20159782  2185
