CCSDS_OMM_VERS = 2.0
CREATION_DATE  = 
ORIGINATOR     = 

OBJECT_NAME    = SITRO-AIS-65
OBJECT_ID      = 2025-313U
CENTER_NAME    = EARTH
REF_FRAME      = TEME
TIME_SYSTEM    = UTC
MEAN_ELEMENT_THEORY = SGP/SGP4

EPOCH          = 2026-01-11T21:31:06.519936
MEAN_MOTION    = 15.20155018
ECCENTRICITY   = .00152252
INCLINATION    = 97.4138
RA_OF_ASC_NODE = 89.1225
ARG_OF_PERICENTER = 187.0382
MEAN_ANOMALY   = 173.0642

EPHEMERIS_TYPE = 0
CLASSIFICATION_TYPE = U
NORAD_CAT_ID   = 67266
ELEMENT_SET_NO = 999
REV_AT_EPOCH   = 218
BSTAR          = .59725713E-3
MEAN_MOTION_DOT = .12905E-3
MEAN_MOTION_DDOT = 0

CCSDS_OMM_VERS = 2.0
CREATION_DATE  = 
ORIGINATOR     = 

OBJECT_NAME    = 2025-313V
OBJECT_ID      = 2025-313V
CENTER_NAME    = EARTH
REF_FRAME      = TEME
TIME_SYSTEM    = UTC
MEAN_ELEMENT_THEORY = SGP/SGP4

EPOCH          = 2026-01-11T23:05:27.136896
MEAN_MOTION    = 15.20209247
ECCENTRICITY   = .00144265
INCLINATION    = 97.4121
RA_OF_ASC_NODE = 89.1757
ARG_OF_PERICENTER = 192.5504
MEAN_ANOMALY   = 167.5374

EPHEMERIS_TYPE = 0
CLASSIFICATION_TYPE = U
NORAD_CAT_ID   = 67267
ELEMENT_SET_NO = 999
REV_AT_EPOCH   = 219
BSTAR          = .64969423E-3
MEAN_MOTION_DOT = .14064E-3
MEAN_MOTION_DDOT = 0

CCSDS_OMM_VERS = 2.0
CREATION_DATE  = 
ORIGINATOR     = 

OBJECT_NAME    = ZORKY-2M 7
OBJECT_ID      = 2025-313W
CENTER_NAME    = EARTH
REF_FRAME      = TEME
TIME_SYSTEM    = UTC
MEAN_ELEMENT_THEORY = SGP/SGP4

EPOCH          = 2026-01-11T23:06:06.603552
MEAN_MOTION    = 15.20114758
ECCENTRICITY   = .00153704
INCLINATION    = 97.4121
RA_OF_ASC_NODE = 89.1737
ARG_OF_PERICENTER = 187.5964
MEAN_ANOMALY   = 172.5041

EPHEMERIS_TYPE = 0
CLASSIFICATION_TYPE = U
NORAD_CAT_ID   = 67268
ELEMENT_SET_NO = 999
REV_AT_EPOCH   = 219
BSTAR          = .49673709E-3
MEAN_MOTION_DOT = .10706E-3
MEAN_MOTION_DDOT = 0

CCSDS_OMM_VERS = 2.0
CREATION_DATE  = 
ORIGINATOR     = 

OBJECT_NAME    = 2025-313X
OBJECT_ID      = 2025-313X
CENTER_NAME    = EARTH
REF_FRAME      = TEME
TIME_SYSTEM    = UTC
MEAN_ELEMENT_THEORY = SGP/SGP4

EPOCH          = 2026-01-11T23:05:08.687904
MEAN_MOTION    = 15.20276143
ECCENTRICITY   = .00152438
INCLINATION    = 97.4147
RA_OF_ASC_NODE = 89.1891
ARG_OF_PERICENTER = 186.1369
MEAN_ANOMALY   = 173.9682

EPHEMERIS_TYPE = 0
CLASSIFICATION_TYPE = U
NORAD_CAT_ID   = 67269
ELEMENT_SET_NO = 999
REV_AT_EPOCH   = 219
BSTAR          = .76535269E-3
MEAN_MOTION_DOT = .16623E-3
MEAN_MOTION_DDOT = 0

CCSDS_OMM_VERS = 2.0
CREATION_DATE  = 
ORIGINATOR     = 

OBJECT_NAME    = SITRO-TD-3
OBJECT_ID      = 2025-313Y
CENTER_NAME    = EARTH
REF_FRAME      = TEME
TIME_SYSTEM    = UTC
MEAN_ELEMENT_THEORY = SGP/SGP4

EPOCH          = 2026-01-11T21:31:30.452736
MEAN_MOTION    = 15.20124842
ECCENTRICITY   = .00153351
INCLINATION    = 97.4121
RA_OF_ASC_NODE = 89.1192
ARG_OF_PERICENTER = 188.0741
MEAN_ANOMALY   = 172.0250

EPHEMERIS_TYPE = 0
CLASSIFICATION_TYPE = U
NORAD_CAT_ID   = 67270
ELEMENT_SET_NO = 999
REV_AT_EPOCH   = 218
BSTAR          = .60854962E-3
MEAN_MOTION_DOT = .1314E-3
MEAN_MOTION_DDOT = 0

CCSDS_OMM_VERS = 2.0
CREATION_DATE  = 
ORIGINATOR     = 

OBJECT_NAME    = 2025-313Z
OBJECT_ID      = 2025-313Z
CENTER_NAME    = EARTH
REF_FRAME      = TEME
TIME_SYSTEM    = UTC
MEAN_ELEMENT_THEORY = SGP/SGP4

EPOCH          = 2026-01-11T23:06:55.018656
MEAN_MOTION    = 15.19991743
ECCENTRICITY   = .00153547
INCLINATION    = 97.4117
RA_OF_ASC_NODE = 89.1740
ARG_OF_PERICENTER = 183.4642
MEAN_ANOMALY   = 176.6489

EPHEMERIS_TYPE = 0
CLASSIFICATION_TYPE = U
NORAD_CAT_ID   = 67271
ELEMENT_SET_NO = 999
REV_AT_EPOCH   = 219
BSTAR          = .27929727E-3
MEAN_MOTION_DOT = .5964E-4
MEAN_MOTION_DDOT = 0

CCSDS_OMM_VERS = 2.0
CREATION_DATE  = 
ORIGINATOR     = 

OBJECT_NAME    = 2025-313AA
OBJECT_ID      = 2025-313AA
CENTER_NAME    = EARTH
REF_FRAME      = TEME
TIME_SYSTEM    = UTC
MEAN_ELEMENT_THEORY = SGP/SGP4

EPOCH          = 2026-01-11T21:29:47.234976
MEAN_MOTION    = 15.20302522
ECCENTRICITY   = .00150714
INCLINATION    = 97.4120
RA_OF_ASC_NODE = 89.1098
ARG_OF_PERICENTER = 188.3929
MEAN_ANOMALY   = 171.7057

EPHEMERIS_TYPE = 0
CLASSIFICATION_TYPE = U
NORAD_CAT_ID   = 67272
ELEMENT_SET_NO = 999
REV_AT_EPOCH   = 218
BSTAR          = .636843E-3
MEAN_MOTION_DOT = .13825E-3
MEAN_MOTION_DDOT = 0

CCSDS_OMM_VERS = 2.0
CREATION_DATE  = 
ORIGINATOR     = 

OBJECT_NAME    = 2025-313AB
OBJECT_ID      = 2025-313AB
CENTER_NAME    = EARTH
REF_FRAME      = TEME
TIME_SYSTEM    = UTC
MEAN_ELEMENT_THEORY = SGP/SGP4

EPOCH          = 2026-01-11T21:31:53.646816
MEAN_MOTION    = 15.19982297
ECCENTRICITY   = .00142314
INCLINATION    = 97.4135
RA_OF_ASC_NODE = 89.1119
ARG_OF_PERICENTER = 192.2957
MEAN_ANOMALY   = 167.7933

EPHEMERIS_TYPE = 0
CLASSIFICATION_TYPE = U
NORAD_CAT_ID   = 67273
ELEMENT_SET_NO = 999
REV_AT_EPOCH   = 218
BSTAR          = .19766002E-3
MEAN_MOTION_DOT = .4197E-4
MEAN_MOTION_DDOT = 0

CCSDS_OMM_VERS = 2.0
CREATION_DATE  = 
ORIGINATOR     = 

OBJECT_NAME    = 2025-313AC
OBJECT_ID      = 2025-313AC
CENTER_NAME    = EARTH
REF_FRAME      = TEME
TIME_SYSTEM    = UTC
MEAN_ELEMENT_THEORY = SGP/SGP4

EPOCH          = 2026-01-11T21:30:45.509184
MEAN_MOTION    = 15.20131549
ECCENTRICITY   = .00150096
INCLINATION    = 97.4110
RA_OF_ASC_NODE = 89.1172
ARG_OF_PERICENTER = 187.3537
MEAN_ANOMALY   = 172.7480

EPHEMERIS_TYPE = 0
CLASSIFICATION_TYPE = U
NORAD_CAT_ID   = 67274
ELEMENT_SET_NO = 999
REV_AT_EPOCH   = 218
BSTAR          = .39917048E-3
MEAN_MOTION_DOT = .859E-4
MEAN_MOTION_DDOT = 0

CCSDS_OMM_VERS = 2.0
CREATION_DATE  = 
ORIGINATOR     = 

OBJECT_NAME    = 2025-313AD
OBJECT_ID      = 2025-313AD
CENTER_NAME    = EARTH
REF_FRAME      = TEME
TIME_SYSTEM    = UTC
MEAN_ELEMENT_THEORY = SGP/SGP4

EPOCH          = 2026-01-11T23:04:49.669536
MEAN_MOTION    = 15.20190316
ECCENTRICITY   = .00142122
INCLINATION    = 97.4084
RA_OF_ASC_NODE = 89.1781
ARG_OF_PERICENTER = 190.0694
MEAN_ANOMALY   = 170.0259

EPHEMERIS_TYPE = 0
CLASSIFICATION_TYPE = U
NORAD_CAT_ID   = 67275
ELEMENT_SET_NO = 999
REV_AT_EPOCH   = 219
BSTAR          = .44543668E-3
MEAN_MOTION_DOT = .9609E-4
MEAN_MOTION_DDOT = 0

CCSDS_OMM_VERS = 2.0
CREATION_DATE  = 
ORIGINATOR     = 

OBJECT_NAME    = 2025-313AE
OBJECT_ID      = 2025-313AE
CENTER_NAME    = EARTH
REF_FRAME      = TEME
TIME_SYSTEM    = UTC
MEAN_ELEMENT_THEORY = SGP/SGP4

EPOCH          = 2026-01-11T21:29:59.475264
MEAN_MOTION    = 15.20191612
ECCENTRICITY   = .00141647
INCLINATION    = 97.4089
RA_OF_ASC_NODE = 89.1137
ARG_OF_PERICENTER = 190.2637
MEAN_ANOMALY   = 169.8311

EPHEMERIS_TYPE = 0
CLASSIFICATION_TYPE = U
NORAD_CAT_ID   = 67276
ELEMENT_SET_NO = 999
REV_AT_EPOCH   = 218
BSTAR          = .43983917E-3
MEAN_MOTION_DOT = .9487E-4
MEAN_MOTION_DDOT = 0

CCSDS_OMM_VERS = 2.0
CREATION_DATE  = 
ORIGINATOR     = 

OBJECT_NAME    = 2025-313AF
OBJECT_ID      = 2025-313AF
CENTER_NAME    = EARTH
REF_FRAME      = TEME
TIME_SYSTEM    = UTC
MEAN_ELEMENT_THEORY = SGP/SGP4

EPOCH          = 2026-01-11T21:30:12.421440
MEAN_MOTION    = 15.20159782
ECCENTRICITY   = .00141644
INCLINATION    = 97.4090
RA_OF_ASC_NODE = 89.1142
ARG_OF_PERICENTER = 190.0858
MEAN_ANOMALY   = 170.0095

EPHEMERIS_TYPE = 0
CLASSIFICATION_TYPE = U
NORAD_CAT_ID   = 67277
ELEMENT_SET_NO = 999
REV_AT_EPOCH   = 218
BSTAR          = .38302031E-3
MEAN_MOTION_DOT = .8244E-4
MEAN_MOTION_DDOT = 0

